NORAD_CAT_ID,OBJECT_NAME,OBJECT_TYPE,EPOCH,MEAN_MOTION,ECCENTRICITY,INCLINATION,RA_OF_ASC_NODE,ARG_OF_PERICENTER,MEAN_ANOMALY,BSTAR,MEAN_MOTION_DOT,MEAN_MOTION_DDOT,TLE_LINE0,TLE_LINE1,TLE_LINE2,SEMIMAJOR_AXIS,PERIOD,APOGEE,PERIGEE,DECAYED
50828.0,STARLINK-3290,PAYLOAD,2023-11-19 18:14:41,15.08843793,0.0001494,53.2184,344.0928,93.4864,266.6299,2.9161e-05,1.76e-06,0.0,0 STARLINK-3290,1 50828U 22001AB  23323.76020187  .00000176  00000-0  29161-4 0  9999,2 50828  53.2184 344.0928 0001494  93.4864 266.6299 15.08843793103305,6917.869,95.437,540.767,538.7,0.0
50828.0,STARLINK-3290,PAYLOAD,2023-11-20 11:43:55,15.08847893,0.0001539,53.2185,340.8207,90.1557,269.9612,0.00017261,2.461e-05,0.0,0 STARLINK-3290,1 50828U 22001AB  23324.48883746  .00002461  00000-0  17261-3 0  9993,2 50828  53.2185 340.8207 0001539  90.1557 269.9612 15.08847893103415,6917.856,95.437,540.786,538.657,0.0
50828.0,STARLINK-3290,PAYLOAD,2023-11-20 18:05:28,15.08839416,0.0001645,53.2181,339.6314,86.9717,273.1463,9.4907e-05,1.223e-05,0.0,0 STARLINK-3290,1 50828U 22001AB  23324.75380524  .00001223  00000-0  94907-4 0  9997,2 50828  53.2181 339.6314 0001645  86.9717 273.1463 15.08839416104880,6917.882,95.438,540.885,538.609,0.0
50828.0,STARLINK-3290,PAYLOAD,2023-11-21 09:59:20,15.08843512,0.0001693,53.2186,336.6578,86.4138,273.7048,4.8715e-05,4.87e-06,0.0,0 STARLINK-3290,1 50828U 22001AB  23325.41620394  .00000487  00000-0  48715-4 0  9990,2 50828  53.2186 336.6578 0001693  86.4138 273.7048 15.08843512103559,6917.87,95.437,540.906,538.563,0.0
50828.0,STARLINK-3290,PAYLOAD,2023-11-22 00:17:48,15.08846161,0.0001722,53.2189,333.9816,90.3774,269.7416,8.8989e-05,1.129e-05,0.0,0 STARLINK-3290,1 50828U 22001AB  23326.01236146  .00001129  00000-0  88989-4 0  9996,2 50828  53.2189 333.9816 0001722  90.3774 269.7416 15.08846161105076,6917.862,95.437,540.918,538.535,0.0
50828.0,STARLINK-3290,PAYLOAD,2023-11-22 08:14:43,15.08850539,0.0001742,53.2178,332.4947,87.9393,272.1799,0.00017381,2.48e-05,0.0,0 STARLINK-3290,1 50828U 22001AB  23326.34355722  .00002480  00000-0  17381-3 0  9992,2 50828  53.2178 332.4947 0001742  87.9393 272.1799 15.08850539103696,6917.848,95.437,540.918,538.508,0.0
50828.0,STARLINK-3290,PAYLOAD,2023-11-23 09:40:51,15.08881784,0.0001834,53.2163,327.7358,82.3616,277.7585,0.00077651,0.00012106,0.0,0 STARLINK-3290,1 50828U 22001AB  23327.40337853  .00012106  00000-0  77651-3 0  9997,2 50828  53.2163 327.7358 0001834  82.3616 277.7585 15.08881784105289,6917.753,95.435,540.886,538.349,0.0
50828.0,STARLINK-3290,PAYLOAD,2023-11-23 23:59:20,15.08839202,0.0001102,53.2166,325.0588,84.1322,275.9796,-0.00036035,-6.018e-05,0.0,0 STARLINK-3290,1 50828U 22001AB  23327.99954415 -.00006018  00000-0 -36035-3 0  9998,2 50828  53.2166 325.0588 0001102  84.1322 275.9796 15.08839202105372,6917.883,95.438,540.51,538.985,0.0
50828.0,STARLINK-3290,PAYLOAD,2023-11-24 09:31:39,15.08840021,0.0001831,53.2154,323.2738,96.4699,263.6502,-9.4483e-05,-1.792e-05,0.0,0 STARLINK-3290,1 50828U 22001AB  23328.39698500 -.00001792  00000-0 -94483-4 0  9999,2 50828  53.2154 323.2738 0001831  96.4699 263.6502 15.08840021104007,6917.88,95.438,541.012,538.479,0.0
50828.0,STARLINK-3290,PAYLOAD,2023-11-25 03:00:55,15.08822988,0.0001991,53.2158,319.9959,111.1677,248.9528,-0.00018985,-3.307e-05,0.0,0 STARLINK-3290,1 50828U 22001AB  23329.12563680 -.00003307  00000-0 -18985-3 0  9997,2 50828  53.2158 319.9959 0001991 111.1677 248.9528 15.08822988105542,6917.932,95.439,541.175,538.42,0.0
50828.0,STARLINK-3290,PAYLOAD,2023-11-25 06:11:41,15.08825766,0.0001847,53.216,319.4041,96.5878,263.5324,3.5931e-05,2.84e-06,0.0,0 STARLINK-3290,1 50828U 22001AB  23329.25811973  .00000284  00000-0  35931-4 0  9992,2 50828  53.2160 319.4041 0001847  96.5878 263.5324 15.08825766104139,6917.924,95.438,541.067,538.511,0.0
50828.0,STARLINK-3290,PAYLOAD,2023-11-26 02:51:42,15.08858094,0.000176,53.2158,315.5427,99.6012,260.5179,0.0012713,0.00020013,0.0,0 STARLINK-3290,1 50828U 22001AB  23330.11924477  .00020013  00000-0  12713-2 0  9996,2 50828  53.2158 315.5427 0001760  99.6012 260.5179 15.08858094105696,6917.825,95.436,540.908,538.473,0.0
50828.0,STARLINK-3290,PAYLOAD,2023-11-26 09:13:15,15.0886654,0.000173,53.2159,314.352,87.2415,272.8776,0.0012734,0.00020051,0.0,0 STARLINK-3290,1 50828U 22001AB  23330.38420239  .00020051  00000-0  12734-2 0  9997,2 50828  53.2159 314.3520 0001730  87.2415 272.8776 15.08866540104306,6917.799,95.436,540.861,538.467,0.0
50828.0,STARLINK-3290,PAYLOAD,2023-11-27 04:17:53,15.08830413,0.0001829,53.2161,310.7851,106.6124,253.5069,4.7594e-05,4.69e-06,0.0,0 STARLINK-3290,1 50828U 22001AB  23331.17909308  .00000469  00000-0  47594-4 0  9999,2 50828  53.2161 310.7851 0001829 106.6124 253.5069 15.08830413105850,6917.91,95.438,541.04,538.509,0.0
50828.0,STARLINK-3290,PAYLOAD,2023-11-27 09:04:03,15.08833304,0.0001828,53.2163,309.8922,108.5895,251.5295,0.00038137,5.786e-05,0.0,0 STARLINK-3290,1 50828U 22001AB  23331.37781439  .00005786  00000-0  38137-3 0  9993,2 50828  53.2163 309.8922 0001828 108.5895 251.5295 15.08833304104451,6917.901,95.438,541.03,538.501,0.0
50828.0,STARLINK-3290,PAYLOAD,2023-11-28 02:33:17,15.08848475,0.0001919,53.2163,306.6203,114.1597,245.9596,0.00087667,0.00013695,0.0,0 STARLINK-3290,1 50828U 22001AB  23332.10645621  .00013695  00000-0  87667-3 0  9997,2 50828  53.2163 306.6203 0001919 114.1597 245.9596 15.08848475105997,6917.854,95.437,541.047,538.392,0.0
50828.0,STARLINK-3290,PAYLOAD,2023-11-28 08:54:50,15.08860228,0.0001926,53.2166,305.4301,114.7267,245.3926,0.0010158,0.00015924,0.0,0 STARLINK-3290,1 50828U 22001AB  23332.37141261  .00015924  00000-0  10158-2 0  9994,2 50828  53.2166 305.4301 0001926 114.7267 245.3926 15.08860228104602,6917.819,95.436,541.016,538.351,0.0
50828.0,STARLINK-3290,PAYLOAD,2023-11-29 03:59:27,15.08848193,0.00025,53.2176,301.8555,133.1646,226.9556,0.00048082,7.374e-05,0.0,0 STARLINK-3290,1 50828U 22001AB  23333.16629294  .00007374  00000-0  48082-3 0  9997,2 50828  53.2176 301.8555 0002500 133.1646 226.9556 15.08848193106152,6917.855,95.437,541.45,537.991,0.0
50828.0,STARLINK-3290,PAYLOAD,2023-11-29 07:10:14,15.08852214,0.0001803,53.2168,301.2677,111.2988,248.8197,0.00059154,9.142e-05,0.0,0 STARLINK-3290,1 50828U 22001AB  23333.29877412  .00009142  00000-0  59154-3 0  9995,2 50828  53.2168 301.2677 0001803 111.2988 248.8197 15.08852214104749,6917.843,95.437,540.955,538.461,0.0
50828.0,STARLINK-3290,PAYLOAD,2023-11-30 03:50:14,15.08841976,0.0002636,53.218,297.4013,134.1926,225.9283,0.00070575,0.00010963,0.0,0 STARLINK-3290,1 50828U 22001AB  23334.15989538  .00010963  00000-0  70575-3 0  9997,2 50828  53.2180 297.4013 0002636 134.1926 225.9283 15.08841976106303,6917.874,95.437,541.563,537.916,0.0
50828.0,STARLINK-3290,PAYLOAD,2023-12-01 03:41:02,15.08842871,0.0001859,53.2174,292.9445,99.6357,260.4846,0.00034691,5.238e-05,0.0,0 STARLINK-3290,1 50828U 22001AB  23335.15350153  .00005238  00000-0  34691-3 0  9991,2 50828  53.2174 292.9445 0001859  99.6357 260.4846 15.08842871106454,6917.872,95.437,541.023,538.451,0.0
50828.0,STARLINK-3290,PAYLOAD,2023-12-02 00:21:03,15.08839088,0.0001789,53.2168,289.0812,87.646,272.4737,0.00025024,3.697e-05,0.0,0 STARLINK-3290,1 50828U 22001AB  23336.01462616  .00003697  00000-0  25024-3 0  9992,2 50828  53.2168 289.0812 0001789  87.6460 272.4737 15.08839088106588,6917.883,95.438,540.986,538.511,0.0
50828.0,STARLINK-3290,PAYLOAD,2023-12-02 03:31:49,15.08862572,0.0001954,53.2182,288.4881,100.2395,259.8818,0.00070895,0.0001102,0.0,0 STARLINK-3290,1 50828U 22001AB  23336.14710109  .00011020  00000-0  70895-3 0  9994,2 50828  53.2182 288.4881 0001954 100.2395 259.8818 15.08862572106602,6917.811,95.436,541.028,538.325,0.0
50828.0,STARLINK-3290,PAYLOAD,2023-12-03 03:22:36,15.08818577,0.0001137,53.2173,284.0241,102.3378,257.7742,-0.00053906,-8.852e-05,0.0,0 STARLINK-3290,1 50828U 22001AB  23337.14069517 -.00008852  00000-0 -53906-3 0  9990,2 50828  53.2173 284.0241 0001137 102.3378 257.7742 15.08818577106756,6917.946,95.439,540.597,539.024,0.0
50828.0,STARLINK-3290,PAYLOAD,2023-12-03 06:33:22,15.08817405,0.0001104,53.2168,283.427,106.2569,253.8544,-0.00052163,-8.575e-05,0.0,0 STARLINK-3290,1 50828U 22001AB  23337.27317697 -.00008575  00000-0 -52163-3 0  9995,2 50828  53.2168 283.4270 0001104 106.2569 253.8544 15.08817405105344,6917.949,95.439,540.578,539.051,0.0
50828.0,STARLINK-3290,PAYLOAD,2023-12-04 03:13:23,15.08830615,9.89e-05,53.2174,279.5626,106.2288,253.8814,-0.00016478,-2.909e-05,0.0,0 STARLINK-3290,1 50828U 22001AB  23338.13430005 -.00002909  00000-0 -16478-3 0  9994,2 50828  53.2174 279.5626 0000989 106.2288 253.8814 15.08830615106901,6917.909,95.438,540.458,539.09,0.0
50828.0,STARLINK-3290,PAYLOAD,2023-12-04 20:42:38,15.08840023,8.51e-05,53.217,276.2912,95.9541,264.1548,0.00077174,0.00012016,0.0,0 STARLINK-3290,1 50828U 22001AB  23338.86294918  .00012016  00000-0  77174-3 0  9993,2 50828  53.2170 276.2912 0000851  95.9541 264.1548 15.08840023105589,6917.88,95.438,540.334,539.157,0.0
50828.0,STARLINK-3290,PAYLOAD,2023-12-05 01:28:47,15.08861385,9.07e-05,53.2169,275.399,85.5939,274.5157,0.001116,0.00017528,0.0,0 STARLINK-3290,1 50828U 22001AB  23339.06166538  .00017528  00000-0  11160-2 0  9997,2 50828  53.2169 275.3990 0000907  85.5939 274.5157 15.08861385107049,6917.815,95.436,540.307,539.053,0.0
50828.0,STARLINK-3290,PAYLOAD,2023-12-05 18:58:02,15.08864992,0.0001137,53.217,272.1285,76.4412,283.6707,0.00082726,0.00012911,0.0,0 STARLINK-3290,1 50828U 22001AB  23339.79030096  .00012911  00000-0  82726-3 0  9994,2 50828  53.2170 272.1285 0001137  76.4412 283.6707 15.08864992107155,6917.804,95.436,540.456,538.882,0.0
50828.0,STARLINK-3290,PAYLOAD,2023-12-06 04:30:20,15.08854579,9.04e-05,53.2161,270.342,77.5867,282.5226,0.00029093,4.347e-05,0.0,0 STARLINK-3290,1 50828U 22001AB  23340.18773881  .00004347  00000-0  29093-3 0  9997,2 50828  53.2161 270.3420 0000904  77.5867 282.5226 15.08854579107214,6917.836,95.437,540.326,539.075,0.0
